{"fetched_at":"2026-07-22T07:10:02.143Z","source":"https://celestrak.org/NORAD/elements/gp.php?NAME=RCM&FORMAT=JSON","constellation":"rcm","records":[{"OBJECT_NAME":"RCM-1","OBJECT_ID":"2019-033A","EPOCH":"2026-07-21T14:42:46.993824","CLASSIFICATION_TYPE":"U","MEAN_MOTION":14.92589188,"ECCENTRICITY":0.00015209,"INCLINATION":97.7599,"RA_OF_ASC_NODE":209.574,"ARG_OF_PERICENTER":92.183,"MEAN_ANOMALY":17.0879,"EPHEMERIS_TYPE":0,"NORAD_CAT_ID":44322,"ELEMENT_SET_NO":999,"REV_AT_EPOCH":38721,"BSTAR":0.000040131302,"MEAN_MOTION_DOT":0.00000357,"MEAN_MOTION_DDOT":0},{"OBJECT_NAME":"RCM-3","OBJECT_ID":"2019-033B","EPOCH":"2026-07-21T14:46:04.590624","CLASSIFICATION_TYPE":"U","MEAN_MOTION":14.92590207,"ECCENTRICITY":0.00015567,"INCLINATION":97.76,"RA_OF_ASC_NODE":209.6705,"ARG_OF_PERICENTER":92.906,"MEAN_ANOMALY":267.2338,"EPHEMERIS_TYPE":0,"NORAD_CAT_ID":44323,"ELEMENT_SET_NO":999,"REV_AT_EPOCH":38723,"BSTAR":-0.000004480714,"MEAN_MOTION_DOT":-0.00000102,"MEAN_MOTION_DDOT":0},{"OBJECT_NAME":"RCM-2","OBJECT_ID":"2019-033C","EPOCH":"2026-07-21T13:41:31.478208","CLASSIFICATION_TYPE":"U","MEAN_MOTION":14.92590122,"ECCENTRICITY":0.0001508,"INCLINATION":97.7599,"RA_OF_ASC_NODE":209.5767,"ARG_OF_PERICENTER":92.2302,"MEAN_ANOMALY":267.909,"EPHEMERIS_TYPE":0,"NORAD_CAT_ID":44324,"ELEMENT_SET_NO":999,"REV_AT_EPOCH":38721,"BSTAR":0.000077563299,"MEAN_MOTION_DOT":0.00000742,"MEAN_MOTION_DDOT":0}]}
