{"epoch":1784710044,"count":18256,"objects":[{"id":"44322","name":"RCM 1","type":"PAYLOAD","l1":"1 44322U 19033A   26202.61304391  .00000357  00000-0  40131-4 0  9998","l2":"2 44322  97.7599 209.5740 0001521  92.1830  17.0879 14.92589188387210"},{"id":"44323","name":"RCM 3","type":"PAYLOAD","l1":"1 44323U 19033B   26202.61533091 -.00000102  00000-0 -44807-5 0  9995","l2":"2 44323  97.7600 209.6705 0001557  92.9060 267.2338 14.92590207387233"},{"id":"44324","name":"RCM 2","type":"PAYLOAD","l1":"1 44324U 19033C   26202.57050322  .00000742  00000-0  77563-4 0  9994","l2":"2 44324  97.7599 209.5767 0001508  92.2302 267.9090 14.92590122387212"}]}